QIANFAN-105             
1 66047U 25233Q   26021.71016019  .00000167  00000+0  15207-3 0  9995
2 66047  88.9943  57.7828 0014222 267.1530  92.8009 13.78552380 13541
QIANFAN-106             
1 66048U 25233R   26022.87922030  .00000071  00000+0  92132-4 0  9990
2 66048  88.9921  57.8956 0000570 283.8178  76.2910 13.50959198 13573
QIANFAN-107             
1 66049U 25233S   26022.88741273  .00000030  00000+0  27508-4 0  9990
2 66049  88.9923  57.9002 0001956  90.4939 269.6436 13.50990480 13575
QIANFAN-108             
1 66050U 25233T   26021.55810364 -.02059567  00000+0 -35346+1 0  9991
2 66050  88.9935  58.0373 0008119 287.5424  72.4838 13.48623702 13392
